     2.11           N: GPS NAV DATA                         RINEX VERSION / TYPE
gfzrnx-1.11-7352    FILE MERGE          20251110 030628 UTC PGM / RUN BY / DATE 
    18                  GPS                                 LEAP SECONDS        
                                                            END OF HEADER
14 25 11 10 02 00  0.0 7.128748111427e-04 3.183231456205e-12 0.000000000000e+00
    6.700000000000e+01 9.281250000000e+00 5.145214318829e-09-1.160395762250e+00
    4.526227712631e-07 6.309279007837e-03 7.381662726402e-06 5.153633396149e+03
    9.360000000000e+04 1.005828380585e-07 2.990061973637e+00-3.725290298462e-08
    9.432292906574e-01 2.255625000000e+02-2.764406748729e+00-8.185698110040e-09
   -1.825076021742e-10 1.000000000000e+00 2.392000000000e+03 0.000000000000e+00
    2.000000000000e+00 0.000000000000e+00-7.916241884232e-09 5.790000000000e+02
    8.642800000000e+04 4.000000000000e+00 0.000000000000e+00 0.000000000000e+00
14 25 11 10 04 00  0.0 7.128976285458e-04 3.183231456205e-12 0.000000000000e+00
    6.800000000000e+01 9.812500000000e+00 5.150571684842e-09-1.101907742995e-01
    5.736947059631e-07 6.309308577329e-03 7.500872015953e-06 5.153633399963e+03
    1.008000000000e+05 7.636845111847e-08 2.990002892228e+00 5.587935447693e-08
    9.432275132120e-01 2.259687500000e+02-2.764401704587e+00-8.266058600234e-09
   -2.117945363783e-10 1.000000000000e+00 2.392000000000e+03 0.000000000000e+00
    2.000000000000e+00 0.000000000000e+00-7.916241884232e-09 5.800000000000e+02
    9.362500000000e+04 4.000000000000e+00 0.000000000000e+00 0.000000000000e+00
16 25 11 10 00 00  0.0 1.433677971363e-04 8.071765478235e-12 0.000000000000e+00
    4.200000000000e+01 1.100000000000e+01 4.754840915352e-09 2.453950367191e+00
    4.321336746216e-07 1.477590459399e-02 8.370727300644e-06 5.153588470459e+03
    8.640000000000e+04-1.490116119385e-08 3.060073656076e+00-2.812594175339e-07
    9.591250410535e-01 2.173750000000e+02 9.052453088378e-01-7.716035689572e-09
   -3.096557555480e-10 1.000000000000e+00 2.392000000000e+03 0.000000000000e+00
    2.000000000000e+00 0.000000000000e+00-1.071020960808e-08 4.200000000000e+01
    7.922500000000e+04 4.000000000000e+00 0.000000000000e+00 0.000000000000e+00
17 25 11 10 02 00  0.0 3.845943138003e-05-1.341504685115e-11 0.000000000000e+00
    7.100000000000e+01 9.009375000000e+01 4.355538568521e-09 2.426896447601e+00
    4.814937710762e-06 1.313265785575e-02 8.950009942055e-06 5.153791191101e+03
    9.360000000000e+04 1.545995473862e-07-2.205208947644e+00 2.235174179077e-08
    9.609697485673e-01 2.014062500000e+02-1.166421720775e+00-7.696392014191e-09
   -3.478716331070e-10 1.000000000000e+00 2.392000000000e+03 0.000000000000e+00
    2.000000000000e+00 0.000000000000e+00-1.117587089539e-08 7.100000000000e+01
    8.642900000000e+04 4.000000000000e+00 0.000000000000e+00 0.000000000000e+00
17 25 11 10 04 00  0.0 3.836303949356e-05-1.341504685115e-11 0.000000000000e+00
    8.300000000000e+01 9.643750000000e+01 4.348395413837e-09-2.806236298914e+00
    5.075708031654e-06 1.313214201946e-02 9.492039680481e-06 5.153792383194e+03
    1.008000000000e+05 2.793967723846e-08-2.205265059330e+00 1.695007085800e-07
    9.609678877355e-01 1.934062500000e+02-1.166367044212e+00-7.653175928354e-09
   -1.978653847446e-10 1.000000000000e+00 2.392000000000e+03 0.000000000000e+00
    2.000000000000e+00 0.000000000000e+00-1.117587089539e-08 8.300000000000e+01
    9.362600000000e+04 4.000000000000e+00 0.000000000000e+00 0.000000000000e+00
19 25 11 10 02 00  0.0 6.739972159266e-04 2.273736754432e-12 0.000000000000e+00
    8.700000000000e+01 8.556250000000e+01 4.450899683552e-09-1.972500232495e+00
    4.433095455170e-06 1.085026876535e-02 9.188428521156e-06 5.153690662384e+03
    9.360000000000e+04-1.750886440277e-07-2.161228518746e+00-1.583248376846e-07
    9.601378148510e-01 2.041562500000e+02 2.892626703913e+00-7.939616431179e-09
   -1.250052069686e-10 1.000000000000e+00 2.392000000000e+03 0.000000000000e+00
    2.000000000000e+00 0.000000000000e+00-1.536682248116e-08 8.700000000000e+01
    8.641900000000e+04 4.000000000000e+00 0.000000000000e+00 0.000000000000e+00
19 25 11 10 03 59 44.0 6.740153767169e-04 2.273736754432e-12 0.000000000000e+00
    4.000000000000e+00 8.475000000000e+01 4.451971156754e-09-9.246408435054e-01
    4.384666681290e-06 1.085039449390e-02 9.234994649887e-06 5.153691150665e+03
    1.007840000000e+05-2.980232238770e-08-2.161285938280e+00-1.899898052216e-07
    9.601371331312e-01 2.018125000000e+02 2.892603794616e+00-7.985689778890e-09
   -9.893269237232e-11 1.000000000000e+00 2.392000000000e+03 0.000000000000e+00
    2.000000000000e+00 0.000000000000e+00-1.536682248116e-08 4.000000000000e+00
    9.459700000000e+04 4.000000000000e+00 0.000000000000e+00 0.000000000000e+00
19 25 11 10 04 00  0.0 6.740135140717e-04 2.273736754432e-12 0.000000000000e+00
    8.800000000000e+01 8.475000000000e+01 4.451971156754e-09-9.223069171680e-01
    4.384666681290e-06 1.085039402824e-02 9.234994649887e-06 5.153691154480e+03
    1.008000000000e+05-2.980232238770e-08-2.161286072869e+00-1.899898052216e-07
    9.601371258166e-01 2.018125000000e+02 2.892603548846e+00-7.985689778890e-09
   -9.893269237232e-11 1.000000000000e+00 2.392000000000e+03 0.000000000000e+00
    2.828427076340e+00 0.000000000000e+00-1.536682248116e-08 8.800000000000e+01
    9.362700000000e+04 4.000000000000e+00 0.000000000000e+00 0.000000000000e+00
22 25 11 10 02 00  0.0-7.975054904819e-05 3.069544618484e-12 0.000000000000e+00
    5.000000000000e+01 1.440625000000e+01 4.706267463502e-09 3.062840265305e+00
    7.580965757370e-07 1.258130185306e-02 7.869675755501e-06 5.153633876801e+03
    9.360000000000e+04 1.005828380585e-07 3.063335736641e+00 2.328306436539e-07
    9.585463925848e-01 2.230625000000e+02-1.016830541039e+00-7.793181760159e-09
   -2.792973481413e-10 1.000000000000e+00 2.392000000000e+03 0.000000000000e+00
    2.000000000000e+00 0.000000000000e+00-1.117587089539e-08 5.000000000000e+01
    8.642100000000e+04 4.000000000000e+00 0.000000000000e+00 0.000000000000e+00
22 25 11 10 04 00  0.0-7.972819730639e-05 3.069544618484e-12 0.000000000000e+00
    6.000000000000e+01 1.668750000000e+01 4.658408327120e-09-2.170138152130e+00
    1.121312379837e-06 1.258158357814e-02 7.994472980499e-06 5.153633394241e+03
    1.008000000000e+05-5.029141902924e-08 3.063279635195e+00 2.719461917877e-07
    9.585444220341e-01 2.240000000000e+02-1.016830720978e+00-7.823183009831e-09
   -2.528676758108e-10 1.000000000000e+00 2.392000000000e+03 0.000000000000e+00
    2.000000000000e+00 0.000000000000e+00-1.117587089539e-08 6.000000000000e+01
    9.362800000000e+04 4.000000000000e+00 0.000000000000e+00 0.000000000000e+00
24 25 11 10 02 00  0.0-2.425289712846e-04 1.307398633799e-11 0.000000000000e+00
    7.600000000000e+01-2.187500000000e-01 5.312721296167e-09 6.528517303979e-01
   -5.587935447693e-08 1.769202691503e-02 8.177012205124e-06 5.153654083252e+03
    9.360000000000e+04-2.961605787277e-07 1.819146521086e+00 2.793967723846e-08
    9.342502652164e-01 2.114375000000e+02 1.113870315250e+00-8.550713314388e-09
    2.635824078367e-10 1.000000000000e+00 2.392000000000e+03 0.000000000000e+00
    2.000000000000e+00 0.000000000000e+00 2.328306436539e-09 7.600000000000e+01
    9.152400000000e+04 4.000000000000e+00 0.000000000000e+00 0.000000000000e+00
24 25 11 10 04 00  0.0-2.424349077046e-04 1.307398633799e-11 0.000000000000e+00
    7.800000000000e+01-1.756250000000e+01 5.133428113600e-09 1.702918321909e+00
   -1.123175024986e-06 1.769298850559e-02 8.240342140198e-06 5.153658849716e+03
    1.008000000000e+05-3.091990947723e-07 1.819084472879e+00-3.650784492493e-07
    9.342532510322e-01 2.094375000000e+02 1.114000939205e+00-8.298917111780e-09
    3.825159333240e-10 1.000000000000e+00 2.392000000000e+03 0.000000000000e+00
    2.000000000000e+00 0.000000000000e+00 2.328306436539e-09 7.800000000000e+01
    9.361900000000e+04 4.000000000000e+00 0.000000000000e+00 0.000000000000e+00
27 25 11 10 00 00  0.0-3.555463626981e-05-3.865352482535e-12 0.000000000000e+00
    4.900000000000e+01 8.868750000000e+01 4.625549815573e-09 1.567056452797e+00
    4.637986421585e-06 1.375173707493e-02 9.957700967789e-06 5.153664041519e+03
    8.640000000000e+04-3.688037395477e-07-2.277077841158e+00 4.284083843231e-08
    9.543828458078e-01 1.863125000000e+02 8.558354569820e-01-8.095337203288e-09
   -3.539433145883e-10 1.000000000000e+00 2.392000000000e+03 0.000000000000e+00
    2.000000000000e+00 0.000000000000e+00 1.862645149231e-09 4.900000000000e+01
    7.922700000000e+04 4.000000000000e+00 0.000000000000e+00 0.000000000000e+00
30 25 11 10 02 00  0.0 1.983856782317e-05 1.159605744760e-11 0.000000000000e+00
    6.700000000000e+01-6.906250000000e+00 5.214502919263e-09-4.328286347643e-01
   -2.272427082062e-07 7.693910622038e-03 7.612630724907e-06 5.153587810516e+03
    9.360000000000e+04 5.215406417847e-08 1.918327139854e+00 1.005828380585e-07
    9.355834999967e-01 2.201250000000e+02-2.354557973476e+00-8.367134239012e-09
    3.950164540209e-10 1.000000000000e+00 2.392000000000e+03 0.000000000000e+00
    2.000000000000e+00 0.000000000000e+00 4.190951585770e-09 6.700000000000e+01
    8.642200000000e+04 4.000000000000e+00 0.000000000000e+00 0.000000000000e+00
30 25 11 10 04 00  0.0 1.992192119360e-05 1.159605744760e-11 0.000000000000e+00
    7.900000000000e+01-1.303125000000e+01 5.199502294427e-09 6.173950361128e-01
   -5.383044481277e-07 7.693099672906e-03 7.739290595055e-06 5.153586294174e+03
    1.008000000000e+05-8.754432201385e-08 1.918267619569e+00 1.154839992523e-07
    9.355863000219e-01 2.183750000000e+02-2.354542879088e+00-8.297488480843e-09
    3.071556514086e-10 1.000000000000e+00 2.392000000000e+03 0.000000000000e+00
    2.000000000000e+00 0.000000000000e+00 4.190951585770e-09 7.900000000000e+01
    9.362000000000e+04 4.000000000000e+00 0.000000000000e+00 0.000000000000e+00
